OBJECT_NAME,OBJECT_ID,EPOCH,MEAN_MOTION,ECCENTRICITY,INCLINATION,RA_OF_ASC_NODE,ARG_OF_PERICENTER,MEAN_ANOMALY,EPHEMERIS_TYPE,CLASSIFICATION_TYPE,NORAD_CAT_ID,ELEMENT_SET_NO,REV_AT_EPOCH,BSTAR,MEAN_MOTION_DOT,MEAN_MOTION_DDOT
LEMUR-2-ROUNDTRIPPER,2025-009DG,2026-07-10T04:19:41.962656,15.04178168,.00043796,97.7237,273.8296,74.9945,285.1765,0,U,62711,999,8108,.49345183E-3,.6792E-4,0
LEMUR-2-MYNAMEISJEFF,2025-009DH,2026-07-10T01:05:53.473920,15.04168528,.0003672,97.7289,274.0900,109.4233,250.7389,0,U,62712,999,8106,.48907697E-3,.6729E-4,0
LEMUR-2-LEIA-PHILIP,2025-052AN,2026-07-09T12:33:40.591008,14.97383380,.00050117,97.6816,82.0959,132.9473,227.2170,0,U,63246,999,7201,.13266227E-3,.1484E-4,0
LEMUR-2-LIA-MARTIN,2025-052AQ,2026-07-10T02:54:56.409408,14.98002545,.00054137,97.6875,83.1935,102.3403,257.8426,0,U,63248,999,7211,.32409936E-3,.377E-4,0
LEMUR-2-DELOITTE-1,2025-052BB,2026-07-08T16:45:18.552960,14.97751965,.00023088,97.6884,82.1233,66.8273,293.3192,0,U,63259,999,7191,.20556086E-3,.2354E-4,0
LEMUR-2-EMERSONROSE,2025-052BD,2026-07-10T04:29:28.879584,14.99261714,.00027969,97.6882,84.1911,68.6204,291.5317,0,U,63261,999,7218,.28198246E-3,.3381E-4,0
LEMUR-2-MARACHE-FRAN,2025-052BE,2026-07-10T05:07:07.577760,15.00296503,.00046727,97.6852,84.5777,274.4307,85.6383,0,U,63262,999,7221,.2068771E-3,.2533E-4,0
LEMUR-2-THEFALCONER,2025-052BG,2026-07-09T03:05:08.888640,14.97544949,.00007348,97.6850,82.1435,22.7964,337.3291,0,U,63264,999,7197,.22140592E-3,.2526E-4,0
LEMUR-2-UNTITLED-SC,2025-061A,2026-07-09T19:56:52.736352,15.13624093,.00186287,97.5647,166.0309,181.3182,178.8003,0,U,63351,999,7101,.1268394E-3,.222E-4,0
LEMUR-2-ESPERANZA,2025-061B,2026-07-09T17:46:43.078368,15.13732114,.00183142,97.5652,166.0400,180.7928,179.3277,0,U,63352,999,7100,.15555406E-3,.2746E-4,0
LEMUR-2-KREMPEL-BRO2,2025-061C,2026-07-09T23:01:43.845600,15.14156670,.00194354,97.5701,166.8197,172.8063,187.3451,0,U,63353,999,7105,.13996171E-3,.2495E-4,0
LEMUR-2-THERMORAPTOR,2025-061D,2026-07-09T17:48:40.531392,15.14238591,.00192283,97.5705,166.6835,172.4021,187.7505,0,U,63354,999,7102,.14510095E-3,.2595E-4,0
LEMUR-2-NEUROSPICY,2025-061E,2026-07-09T20:15:41.140224,15.14357841,.00169111,97.5633,166.3937,174.9087,185.2320,0,U,63355,999,7104,.12306647E-3,.2196E-4,0
LEMUR-2-TILLINFINITY,2025-061F,2026-07-09T11:23:12.821280,15.14939881,.00185169,97.5618,166.3322,164.8306,195.3485,0,U,63356,999,7101,.15315679E-3,.2798E-4,0
LEMUR-2-KREMPEL-BRO1,2025-061G,2026-07-09T18:44:44.570688,15.14748847,.00190995,97.5620,166.5469,165.2122,194.9673,0,U,63357,999,7105,.12302982E-3,.2223E-4,0
LEMUR-2-LANGER2SPACE,2025-061H,2026-07-09T11:33:42.626304,15.14440730,.00168229,97.5624,166.0543,174.4516,185.6905,0,U,63358,999,7099,.14862125E-3,.2673E-4,0
LEMUR-2-BALTO,2025-052BH,2026-07-10T03:08:47.216256,15.00335374,.00054077,97.6934,84.4803,348.2785,11.8312,0,U,63395,999,7220,.29516608E-3,.3644E-4,0
LEMUR-2-KRISH,2025-135AK,2026-07-10T06:41:55.319136,14.96425392,.00017013,97.7764,306.0004,98.2728,261.8686,0,U,64561,999,5737,.32232974E-3,.3597E-4,0
LEMUR-2-HUBBLE-4,2025-135AP,2026-07-10T06:01:18.186816,14.93675738,.00022732,97.7714,304.8882,176.7097,183.4138,0,U,64565,999,5731,.10748354E-3,.108E-4,0
LEMUR-2-SEJONG-2,2025-135BL,2026-07-10T07:14:23.575200,14.96889895,.00035396,97.7702,306.1689,241.4625,118.6241,0,U,64586,999,5740,.2014064E-3,.2252E-4,0
LEMUR-2-HUBBLE-5,2025-135BT,2026-07-09T06:10:03.711360,14.94201118,.00041158,97.7734,304.5681,260.6132,99.4623,0,U,64840,999,5720,.13039501E-3,.134E-4,0
LEMUR-2-KARENDARRELL,2025-135BU,2026-07-08T20:40:04.897056,15.00440878,.00117501,97.7693,306.0385,124.4354,235.7982,0,U,64841,999,5726,.37563629E-3,.4672E-4,0
LEMUR-2-LUCILLE-ROSE,2025-135BV,2026-07-10T07:14:29.852160,15.00452808,.00142725,97.7711,307.5136,204.1492,155.9064,0,U,65403,999,5210,.36197787E-3,.4504E-4,0
LEMUR-2-AFFIE-WAUWIE,2025-248C,2026-07-09T11:39:53.577792,15.28090558,.00085817,45.3911,354.0945,222.2323,137.7906,0,U,66295,999,3800,.57531474E-3,.15798E-3,0
OTTER SDM,2025-276N,2026-07-09T04:08:36.161664,15.20009823,.00042405,97.4202,263.2859,282.7766,77.2995,0,U,66678,999,3375,.20564658E-3,.4363E-4,0
LEMUR-2-STAS-GORBUK,2025-276W,2026-07-10T04:19:31.556640,15.19626289,.0003446,97.4240,264.3294,274.0299,86.0542,0,U,66686,999,3390,.170828E-3,.3572E-4,0
LEMUR-2-TEODOR,2025-276DG,2026-07-10T03:19:48.442368,15.21303330,.00023006,97.4142,264.5538,92.7088,267.4411,0,U,66768,999,3393,.18578518E-3,.4087E-4,0
LEMUR-2-LAILA,2025-276DQ,2026-07-08T17:28:38.742816,15.21517643,.00028988,97.4166,263.2996,104.2252,255.9306,0,U,66776,999,3372,.17456123E-3,.386E-4,0
LEMUR-2-CELIJO-SB-PK,2025-276DW,2026-07-08T17:10:02.402976,15.00241883,.00073369,97.5199,259.7831,80.2189,279.9863,0,U,66781,999,2585,.32737877E-3,.4042E-4,0
